GAOFEN-9 04             
1 46025U 20054A   25181.53705239  .00007903  00000+0  28759-3 0  9991
2 46025  97.2876 251.7860 0008934 270.3219  89.6998 15.28460502272491
STARLINK-1522           
1 46027U 20055A   25181.31209971  .00000880  00000+0  77929-4 0  9993
2 46027  53.0536 179.5862 0001102  79.4989 280.6124 15.06398319270840
STARLINK-1523           
1 46028U 20055B   25181.26050731  .00001320  00000+0  10744-3 0  9997
2 46028  53.0539 179.8159 0001166  86.1602 273.9520 15.06405702270854
STARLINK-1526           
1 46029U 20055C   25181.31947231  .00000391  00000+0  45155-4 0  9996
2 46029  53.0538 179.5496 0001213  89.0759 271.0369 15.06397320270859
STARLINK-1555           
1 46032U 20055F   25181.37107666  .00001155  00000+0  96386-4 0  9997
2 46032  53.0538 179.3246 0000907  89.6239 270.4854 15.06398186270866
STARLINK-1556           
1 46033U 20055G   25181.28630081  .00000223  00000+0  33866-4 0  9999
2 46033  53.0537 179.7010 0001330  84.4968 275.6172 15.06396050270826
STARLINK-1557           
1 46034U 20055H   25181.28998135  .00000216  00000+0  33407-4 0  9990
2 46034  53.0536 179.6855 0001148  84.4717 275.6403 15.06395894270823
STARLINK-1558           
1 46035U 20055J   25181.43005102 -.00000233  00000+0  32308-5 0  9991
2 46035  53.0537 179.0528 0001075  77.4570 282.6539 15.06395373270879
STARLINK-1560           
1 46036U 20055K   25181.34895351  .00001599  00000+0  12619-3 0  9991
2 46036  53.0541 179.4174 0001295  96.2449 263.8687 15.06414197270864
STARLINK-1567           
1 46038U 20055M   25181.22732412  .00000446  00000+0  48809-4 0  9999
2 46038  53.0537 179.9647 0000958  82.0088 278.1010 15.06393485270830
STARLINK-1569           
1 46039U 20055N   25181.43373726  .00001041  00000+0  88752-4 0  9995
2 46039  53.0536 179.0402 0001167  82.4314 277.6808 15.06398992270869
STARLINK-1582           
1 46043U 20055S   25181.30841161  .00000794  00000+0  72204-4 0  9998
2 46043  53.0537 179.6041 0001275  78.8957 281.2175 15.06394331270841
STARLINK-1591           
1 46045U 20055U   25181.26787011  .00000645  00000+0  62218-4 0  9997
2 46045  53.0535 179.7820 0001224  85.8122 274.3007 15.06397678270825
STARLINK-1524           
1 46047U 20055W   25181.28722087  .00000931  00000+0  81374-4 0  9995
2 46047  53.0536 169.6992 0001255  84.9017 275.2116 15.06395129270980
STARLINK-1527           
1 46048U 20055X   25181.28354087  .00000741  00000+0  68578-4 0  9997
2 46048  53.0539 169.7149 0000070 199.1505 160.9481 15.06397326270968
STARLINK-1540           
1 46051U 20055AA  25181.25036301  .00000284  00000+0  37992-4 0  9992
2 46051  53.0537 169.8612 0001320  81.6725 278.4414 15.06397310270991
STARLINK-1541           
1 46052U 20055AB  25181.36831582  .00000779  00000+0  71227-4 0  9997
2 46052  53.0535 169.3315 0001249  86.0919 274.0213 15.06385172270979
STARLINK-1543           
1 46053U 20055AC  25181.37199458  .00001354  00000+0  10980-3 0  9996
2 46053  53.0533 169.3143 0001185  90.6731 269.4394 15.06398018271005
STARLINK-1548           
1 46054U 20055AD  25181.24667510  .00000577  00000+0  57616-4 0  9996
2 46054  53.0537 169.8795 0000744  82.2394 277.8679 15.06398194270980
STARLINK-1554           
1 46055U 20055AE  25181.36462157  .00000875  00000+0  77611-4 0  9998
2 46055  53.0536 169.3472 0001307  88.8866 271.2273 15.06397434271007
STARLINK-1564           
1 46058U 20055AH  25181.24304431  .00000923  00000+0  80857-4 0  9998
2 46058  53.0537 170.3580 0001278  77.7556 282.3576 15.06399383270972
STARLINK-1570           
1 46059U 20055AJ  25181.27248109  .00000137  00000+0  28102-4 0  9993
2 46059  53.0539 169.7593 0001179  91.1471 268.9653 15.06389756270943
STARLINK-1572           
1 46060U 20055AK  25181.20246607 -.00001884  00000+0 -10765-3 0  9996
2 46060  53.0542 170.0771 0001286  82.8421 277.2714 15.06381051270944
STARLINK-1573           
1 46061U 20055AL  25181.46412270  .00004286  00000+0  30624-3 0  9999
2 46061  53.0545 168.9411 0001510  93.6550 266.4611 15.06426650271018
STARLINK-1577           
1 46063U 20055AN  25181.29090377  .00000483  00000+0  51315-4 0  9998
2 46063  53.0535 169.6807 0001318  87.6736 272.4403 15.06398725270983
STARLINK-1583           
1 46064U 20055AP  25181.19140410  .00001976  00000+0  15154-3 0  9990
2 46064  53.0543 170.1278 0001214  88.6071 271.5057 15.06389659270970
STARLINK-1525           
1 46066U 20055AR  25181.32223719 -.00000190  00000+0  61377-5 0  9999
2 46066  53.0538 149.5394 0001423  92.0652 268.0500 15.06391437271265
STARLINK-1536           
1 46070U 20055AV  25181.23377281  .00000619  00000+0  60471-4 0  9996
2 46070  53.0540 149.9372 0001341  84.5465 275.5677 15.06394695271267
STARLINK-1542           
1 46073U 20055AY  25181.22640578  .00000452  00000+0  49236-4 0  9991
2 46073  53.0546 149.9731 0001449  79.6084 280.5068 15.06394319271258
STARLINK-1549           
1 46074U 20055AZ  25181.34435342 -.00000336  00000+0 -36416-5 0  9996
2 46074  53.0544 149.4439 0001323  86.2457 273.8683 15.06394647271269
STARLINK-1551           
1 46075U 20055BA  25181.30380465  .00000692  00000+0  65329-4 0  9995
2 46075  53.0541 149.6246 0001330  84.8961 275.2180 15.06394465271263
STARLINK-1552           
1 46076U 20055BB  25181.32963529 -.00003313  00000+0 -20377-3 0  9994
2 46076  53.0541 149.5047 0001422  80.9850 279.1299 15.06371482271255
STARLINK-1559           
1 46077U 20055BC  25181.22595665  .00020293  00000+0  12594-2 0  9991
2 46077  53.0521 149.0754 0005906   6.3968 353.7096 15.09691028271222
STARLINK-1566           
1 46079U 20055BE  25181.08265519 -.00000252  00000+0  19633-5 0  9997
2 46079  53.0535 150.6136 0001788 357.7673   2.3308 15.06400904271233
STARLINK-1568           
1 46080U 20055BF  25181.28069347  .00018145  00000+0  76727-3 0  9996
2 46080  53.0653 135.4486 0004465  52.7750 307.3653 15.23286777271441
STARLINK-1578           
1 46082U 20055BH  25181.29643571  .00000370  00000+0  43743-4 0  9990
2 46082  53.0541 149.6578 0001242  82.4006 277.7124 15.06397479271268
STARLINK-1579           
1 46083U 20055BJ  25181.59773580  .00000579  00000+0  57732-4 0  9992
2 46083  53.0541 148.2920 0001430  89.7827 270.3326 15.06400469271307
BSAT-4B                 
1 46112U 20056A   25181.59713361 -.00000350  00000+0  00000+0 0  9996
2 46112   0.0458 181.2372 0004182 302.8900 119.5624  1.00270506 17865
MEV-2                   
1 46113U 20056B   25181.56753314 -.00000011  00000+0  00000+0 0  9990
2 46113   0.0143 309.4791 0000475 150.4823  22.2453  1.00269915 18669
GALAXY 30 (G-30)        
1 46114U 20056C   25181.57965132  .00000036  00000+0  00000+0 0  9991
2 46114   0.0187  33.6325 0001950  64.4210 264.4892  1.00273017 17877
STARLINK-1585           
1 46117U 20057A   25181.49916469  .00001070  00000+0  90713-4 0  9999
2 46117  53.0561 348.7470 0001440  84.9478 275.1676 15.06388450268339
STARLINK-1593           
1 46119U 20057C   25181.53054104  .00000997  00000+0  85850-4 0  9998
2 46119  53.0561   8.9550 0001276  86.8416 273.2719 15.06391678269317
STARLINK-1601           
1 46120U 20057D   25181.54892839  .00000445  00000+0  48761-4 0  9994
2 46120  53.0556   8.5229 0001432  96.7796 263.3356 15.06389359269340
STARLINK-1605           
1 46123U 20057G   25181.57841416  .00000761  00000+0  69966-4 0  9996
2 46123  53.0562 328.3925 0001317  84.9122 275.2017 15.06390043269900
STARLINK-1614           
1 46124U 20057H   25181.58578435  .00000765  00000+0  70245-4 0  9992
2 46124  53.0564 328.3558 0001109 100.1233 259.9881 15.06388030268638
STARLINK-1618           
1 46125U 20057J   25181.58335648  .00173463  00000+0  18529-2 0  9991
2 46125  53.0558 354.7205 0008133 245.9097 299.7750 15.62820640  5955
STARLINK-1621           
1 46127U 20057L   25180.93520971 -.00000342  00000+0 -40837-5 0  9993
2 46127  53.0551 351.2753 0001330  85.4048 274.7093 15.06401492268249
STARLINK-1622           
1 46128U 20057M   25181.58335648  .00006126  00000+0  37162-3 0  9990
2 46128  53.0554 328.3192 0002424  77.1314  76.7454 15.11795666269285
STARLINK-1623           
1 46129U 20057N   25181.60052913  .00000569  00000+0  57122-4 0  9999
2 46129  53.0568 328.2893 0001306  87.3860 272.7278 15.06391216268632
STARLINK-1624           
1 46130U 20057P   25181.56735985  .00000186  00000+0  31361-4 0  9995
2 46130  53.0552 328.4433 0001363  94.7549 265.3596 15.06399383269879
STARLINK-1625           
1 46131U 20057Q   25180.85043241  .00000025  00000+0  20569-4 0  9994
2 46131  53.0561 351.6580 0001155  96.4216 263.6904 15.06401224269490
STARLINK-1639           
1 46135U 20057U   25181.58335648  .00267558  00000+0  15459-2 0  9990
2 46135  53.0438 296.2564 0014758 273.2043 204.3934 15.77195103269735
STARLINK-1643           
1 46136U 20057V   25181.49087470  .00001566  00000+0  12405-3 0  9992
2 46136  53.0544 358.8197 0001653  93.8023 266.3155 15.06392852268199
STARLINK-1586           
1 46137U 20057W   25181.55977457  .00055185  00000+0  61190-3 0  9994
2 46137  53.0504 325.6585 0001355   0.4712 359.6302 15.62437624268668
STARLINK-1596           
1 46141U 20057AA  25181.39199496  .00014827  00000+0  74814-3 0  9995
2 46141  53.0523 323.1291 0005968 145.6753 214.4627 15.17330578268682
STARLINK-1597           
1 46142U 20057AB  25181.52680912  .00000445  00000+0  48756-4 0  9997
2 46142  53.0561   8.6209 0001324  88.4522 271.6619 15.06392244268052
STARLINK-1606           
1 46144U 20057AD  25181.49179200  .00000376  00000+0  44143-4 0  9997
2 46144  53.0564 348.7781 0001258  86.5608 273.5525 15.06391211256585
STARLINK-1608           
1 46146U 20057AF  25181.60421561  .00000875  00000+0  77643-4 0  9997
2 46146  53.0557   8.2759 0001405  90.0369 270.0781 15.06388918268073
STARLINK-1629           
1 46150U 20057AK  25181.49558195  .00051052  00000+0  19277-2 0  9993
2 46150  53.0424 359.8948 0006674 158.5052 201.6227 15.26520347268181
